{
  "norad_id": 48215,
  "name": "ONEWEB-0209",
  "history": [
    {
      "epoch": "2026-03-28T20:41:19.517280Z",
      "apogee_km": 1207.0474087373204,
      "perigee_km": 1204.5289388656047,
      "latitude_deg": -2.7798071667478718e-05,
      "longitude_deg": 169.14348410333568,
      "height_km": 1208.4042850451385,
      "semi_major_axis_km": 7583.925173801462,
      "eccentricity": 0.00016604,
      "inclination_deg": 87.8944,
      "raan_deg": 305.7512,
      "arg_perigee_deg": 77.3891,
      "mean_anomaly_deg": 282.7424,
      "mean_motion_rev_day": 13.14503367
    },
    {
      "epoch": "2026-03-29T02:10:09.196608Z",
      "apogee_km": 1207.0488815564358,
      "perigee_km": 1204.5234351447061,
      "latitude_deg": -1.3881544958449167e-06,
      "longitude_deg": 86.66571310091108,
      "height_km": 1208.40812490077,
      "semi_major_axis_km": 7583.923158350571,
      "eccentricity": 0.0001665,
      "inclination_deg": 87.8941,
      "raan_deg": 305.7055,
      "arg_perigee_deg": 77.6973,
      "mean_anomaly_deg": 282.4343,
      "mean_motion_rev_day": 13.14503891
    },
    {
      "epoch": "2026-03-30T01:55:04.687104Z",
      "apogee_km": 1207.0301476142176,
      "perigee_km": 1204.5456538167427,
      "latitude_deg": -6.711735343923845e-06,
      "longitude_deg": 89.26167666333205,
      "height_km": 1208.4165456209103,
      "semi_major_axis_km": 7583.92490071548,
      "eccentricity": 0.0001638,
      "inclination_deg": 87.8941,
      "raan_deg": 305.508,
      "arg_perigee_deg": 77.8044,
      "mean_anomaly_deg": 282.3269,
      "mean_motion_rev_day": 13.14503438
    },
    {
      "epoch": "2026-03-30T12:52:44.145984Z",
      "apogee_km": 1207.023552347553,
      "perigee_km": 1204.552102924723,
      "latitude_deg": -6.6634995869673275e-06,
      "longitude_deg": -75.69378547174003,
      "height_km": 1208.4167265857823,
      "semi_major_axis_km": 7583.924827636138,
      "eccentricity": 0.00016294,
      "inclination_deg": 87.894,
      "raan_deg": 305.4171,
      "arg_perigee_deg": 77.7504,
      "mean_anomaly_deg": 282.3808,
      "mean_motion_rev_day": 13.14503457
    },
    {
      "epoch": "2026-03-30T20:11:10.408416Z",
      "apogee_km": 1207.0137075427965,
      "perigee_km": 1204.5575783556515,
      "latitude_deg": 8.213352588425608e-06,
      "longitude_deg": 174.33588867745232,
      "height_km": 1208.4156534337483,
      "semi_major_axis_km": 7583.922642949224,
      "eccentricity": 0.00016193,
      "inclination_deg": 87.894,
      "raan_deg": 305.3563,
      "arg_perigee_deg": 77.7251,
      "mean_anomaly_deg": 282.406,
      "mean_motion_rev_day": 13.14504025
    },
    {
      "epoch": "2026-03-31T07:08:49.856064Z",
      "apogee_km": 1206.9978818821446,
      "perigee_km": 1204.57102701672,
      "latitude_deg": 4.132177087767426e-05,
      "longitude_deg": 9.380274754089328,
      "height_km": 1208.4125428446462,
      "semi_major_axis_km": 7583.9214544494325,
      "eccentricity": 0.00016,
      "inclination_deg": 87.8939,
      "raan_deg": 305.2652,
      "arg_perigee_deg": 77.4803,
      "mean_anomaly_deg": 282.6506,
      "mean_motion_rev_day": 13.14504334
    },
    {
      "epoch": "2026-04-01T19:41:01.500864Z",
      "apogee_km": 1206.9736215340872,
      "perigee_km": 1204.604403047847,
      "latitude_deg": -7.58356973458475e-05,
      "longitude_deg": 179.52744893466672,
      "height_km": 1208.4360420373696,
      "semi_major_axis_km": 7583.926012290967,
      "eccentricity": 0.0001562,
      "inclination_deg": 87.8938,
      "raan_deg": 304.9614,
      "arg_perigee_deg": 78.1047,
      "mean_anomaly_deg": 282.0257,
      "mean_motion_rev_day": 13.14503149
    },
    {
      "epoch": "2026-04-02T19:25:56.949888Z",
      "apogee_km": 1206.9832185152118,
      "perigee_km": 1204.590490539108,
      "latitude_deg": 9.085106463206152e-06,
      "longitude_deg": -177.87641069515388,
      "height_km": 1208.4448164265696,
      "semi_major_axis_km": 7583.923854527159,
      "eccentricity": 0.00015775,
      "inclination_deg": 87.8936,
      "raan_deg": 304.7639,
      "arg_perigee_deg": 78.7597,
      "mean_anomaly_deg": 281.371,
      "mean_motion_rev_day": 13.1450371
    },
    {
      "epoch": "2026-04-03T15:31:39.243072Z",
      "apogee_km": 1206.9829360469348,
      "perigee_km": 1204.589449887234,
      "latitude_deg": -4.646025029651807e-05,
      "longitude_deg": -120.2955099136197,
      "height_km": 1208.5004798565756,
      "semi_major_axis_km": 7583.923192967084,
      "eccentricity": 0.0001578,
      "inclination_deg": 87.8933,
      "raan_deg": 304.5963,
      "arg_perigee_deg": 81.501,
      "mean_anomaly_deg": 278.6298,
      "mean_motion_rev_day": 13.14503882
    },
    {
      "epoch": "2026-04-04T13:26:57.988032Z",
      "apogee_km": 1206.9968201400588,
      "perigee_km": 1204.569965614338,
      "latitude_deg": -5.8452829497230014e-05,
      "longitude_deg": -90.20621427021553,
      "height_km": 1208.4795133675345,
      "semi_major_axis_km": 7583.9203928771985,
      "eccentricity": 0.00016,
      "inclination_deg": 87.8928,
      "raan_deg": 304.414,
      "arg_perigee_deg": 80.7524,
      "mean_anomaly_deg": 279.3786,
      "mean_motion_rev_day": 13.1450461
    },
    {
      "epoch": "2026-04-05T13:11:53.334240Z",
      "apogee_km": 1206.9843533767707,
      "perigee_km": 1204.5841939720794,
      "latitude_deg": 3.893779588689464e-06,
      "longitude_deg": -87.609547341942,
      "height_km": 1208.4587054883218,
      "semi_major_axis_km": 7583.921273674425,
      "eccentricity": 0.00015824,
      "inclination_deg": 87.8928,
      "raan_deg": 304.2166,
      "arg_perigee_deg": 79.5963,
      "mean_anomaly_deg": 280.5345,
      "mean_motion_rev_day": 13.14504381
    },
    {
      "epoch": "2026-04-05T20:30:19.601856Z",
      "apogee_km": 1206.9773470345908,
      "perigee_km": 1204.592961909224,
      "latitude_deg": 8.240810582670263e-06,
      "longitude_deg": 162.42000386573514,
      "height_km": 1208.4656759127681,
      "semi_major_axis_km": 7583.922154471907,
      "eccentricity": 0.0001572,
      "inclination_deg": 87.8928,
      "raan_deg": 304.1557,
      "arg_perigee_deg": 79.8234,
      "mean_anomaly_deg": 280.3073,
      "mean_motion_rev_day": 13.14504152
    },
    {
      "epoch": "2026-04-06T01:59:09.250080Z",
      "apogee_km": 1206.9782422835506,
      "perigee_km": 1204.5883973123773,
      "latitude_deg": 4.80054006297154e-05,
      "longitude_deg": 79.9424628495125,
      "height_km": 1208.470721279066,
      "semi_major_axis_km": 7583.920319797964,
      "eccentricity": 0.00015756,
      "inclination_deg": 87.8928,
      "raan_deg": 304.1101,
      "arg_perigee_deg": 80.1825,
      "mean_anomaly_deg": 279.9483,
      "mean_motion_rev_day": 13.14504629
    },
    {
      "epoch": "2026-04-07T12:41:44.239200Z",
      "apogee_km": 1206.9820852861512,
      "perigee_km": 1204.6007317658741,
      "latitude_deg": -1.0695223294070539e-05,
      "longitude_deg": -82.41750864187948,
      "height_km": 1208.4879632758057,
      "semi_major_axis_km": 7583.928408526012,
      "eccentricity": 0.000157,
      "inclination_deg": 87.8926,
      "raan_deg": 303.8214,
      "arg_perigee_deg": 80.5933,
      "mean_anomaly_deg": 279.5374,
      "mean_motion_rev_day": 13.14502526
    },
    {
      "epoch": "2026-04-07T12:41:44.240064Z",
      "apogee_km": 1206.9818577682981,
      "perigee_km": 1204.6009592837263,
      "latitude_deg": -7.302169442341588e-06,
      "longitude_deg": -82.41751212751078,
      "height_km": 1208.4880004705738,
      "semi_major_axis_km": 7583.928408526012,
      "eccentricity": 0.00015697,
      "inclination_deg": 87.8926,
      "raan_deg": 303.8214,
      "arg_perigee_deg": 80.5933,
      "mean_anomaly_deg": 279.5374,
      "mean_motion_rev_day": 13.14502526
    },
    {
      "epoch": "2026-04-08T14:16:16.366368Z",
      "apogee_km": 1206.9742732553796,
      "perigee_km": 1204.6164286874628,
      "latitude_deg": 4.2440584590358353e-05,
      "longitude_deg": -107.31442530864517,
      "height_km": 1208.5029107266796,
      "semi_major_axis_km": 7583.93235097142,
      "eccentricity": 0.00015545,
      "inclination_deg": 87.8927,
      "raan_deg": 303.6087,
      "arg_perigee_deg": 81.0397,
      "mean_anomaly_deg": 279.0909,
      "mean_motion_rev_day": 13.14501501
    },
    {
      "epoch": "2026-04-09T12:11:35.392992Z",
      "apogee_km": 1206.9796171645012,
      "perigee_km": 1204.6149464554328,
      "latitude_deg": 7.611090799572115e-05,
      "longitude_deg": -77.2266069765831,
      "height_km": 1208.5109038910757,
      "semi_major_axis_km": 7583.934281809967,
      "eccentricity": 0.0001559,
      "inclination_deg": 87.8926,
      "raan_deg": 303.4261,
      "arg_perigee_deg": 81.3638,
      "mean_anomaly_deg": 278.7669,
      "mean_motion_rev_day": 13.14500999
    }
  ]
}